
    {
        "ARG_OF_PERICENTER": 87.0681,
        "BSTAR": -0.00013330153,
        "CLASSIFICATION_TYPE": "U",
        "ECCENTRICITY": 0.00013721,
        "ELEMENT_SET_NO": 999,
        "EPHEMERIS_TYPE": 0,
        "EPOCH": "2026-05-21T23:17:42.537408",
        "INCLINATION": 98.5579,
        "MEAN_ANOMALY": 273.0653,
        "MEAN_MOTION": 14.20127923,
        "MEAN_MOTION_DDOT": 0,
        "MEAN_MOTION_DOT": -3.26e-06,
        "NORAD_CAT_ID": 33396,
        "OBJECT_ID": "2008-049A",
        "OBJECT_NAME": "THEOS",
        "RA_OF_ASC_NODE": 200.1029,
        "REV_AT_EPOCH": 91424
    },
    {
        "ARG_OF_PERICENTER": 2.2604,
        "BSTAR": 9.5587769e-05,
        "CLASSIFICATION_TYPE": "U",
        "ECCENTRICITY": 0.00157738,
        "ELEMENT_SET_NO": 999,
        "EPHEMERIS_TYPE": 0,
        "EPOCH": "2026-05-21T21:55:12.735840",
        "INCLINATION": 97.8309,
        "MEAN_ANOMALY": 357.8692,
        "MEAN_MOTION": 15.0676015,
        "MEAN_MOTION_DDOT": 0,
        "MEAN_MOTION_DOT": 1.359e-05,
        "NORAD_CAT_ID": 33412,
        "OBJECT_ID": "2008-054A",
        "OBJECT_NAME": "COSMO-SKYMED 3",
        "RA_OF_ASC_NODE": 0.0477,
        "REV_AT_EPOCH": 95298
    },
    {
        "ARG_OF_PERICENTER": 151.4068,
        "BSTAR": 7.6739222e-05,
        "CLASSIFICATION_TYPE": "U",
        "ECCENTRICITY": 0.00148828,
        "ELEMENT_SET_NO": 999,
        "EPHEMERIS_TYPE": 0,
        "EPOCH": "2026-05-21T18:55:32.789280",
        "INCLINATION": 97.9303,
        "MEAN_ANOMALY": 208.7965,
        "MEAN_MOTION": 14.83142462,
        "MEAN_MOTION_DDOT": 0,
        "MEAN_MOTION_DOT": 5.73e-06,
        "NORAD_CAT_ID": 33446,
        "OBJECT_ID": "2008-061A",
        "OBJECT_NAME": "YAOGAN-4",
        "RA_OF_ASC_NODE": 75.496,
        "REV_AT_EPOCH": 94175
    },
    {
        "ARG_OF_PERICENTER": 100.8715,
        "BSTAR": 6.6469261e-05,
        "CLASSIFICATION_TYPE": "U",
        "ECCENTRICITY": 0.00016664,
        "ELEMENT_SET_NO": 999,
        "EPHEMERIS_TYPE": 0,
        "EPOCH": "2026-05-21T21:19:02.860320",
        "INCLINATION": 98.0863,
        "MEAN_ANOMALY": 259.2677,
        "MEAN_MOTION": 14.67538521,
        "MEAN_MOTION_DDOT": 0,
        "MEAN_MOTION_DOT": 3.29e-06,
        "NORAD_CAT_ID": 33492,
        "OBJECT_ID": "2009-002A",
        "OBJECT_NAME": "GOSAT (IBUKI)",
        "RA_OF_ASC_NODE": 253.3026,
        "REV_AT_EPOCH": 92760
    },
    {
        "ARG_OF_PERICENTER": 46.536,
        "BSTAR": 5.7986423e-05,
        "CLASSIFICATION_TYPE": "U",
        "ECCENTRICITY": 3.414e-05,
        "ELEMENT_SET_NO": 999,
        "EPHEMERIS_TYPE": 0,
        "EPOCH": "2026-05-21T22:29:21.731712",
        "INCLINATION": 97.738,
        "MEAN_ANOMALY": 313.5878,
        "MEAN_MOTION": 14.75205625,
        "MEAN_MOTION_DDOT": 0,
        "MEAN_MOTION_DOT": 3.44e-06,
        "NORAD_CAT_ID": 35681,
        "OBJECT_ID": "2009-041A",
        "OBJECT_NAME": "DEIMOS-1",
        "RA_OF_ASC_NODE": 300.307,
        "REV_AT_EPOCH": 90301
    },
    {
        "ARG_OF_PERICENTER": 149.2648,
        "BSTAR": 9.8579052e-05,
        "CLASSIFICATION_TYPE": "U",
        "ECCENTRICITY": 0.00111193,
        "ELEMENT_SET_NO": 999,
        "EPHEMERIS_TYPE": 0,
        "EPOCH": "2026-05-21T21:43:56.148672",
        "INCLINATION": 98.0017,
        "MEAN_ANOMALY": 210.9214,
        "MEAN_MOTION": 14.7507297,
        "MEAN_MOTION_DDOT": 0,
        "MEAN_MOTION_DOT": 6.14e-06,
        "NORAD_CAT_ID": 35682,
        "OBJECT_ID": "2009-041B",
        "OBJECT_NAME": "DUBAISAT-1",
        "RA_OF_ASC_NODE": 275.4575,
        "REV_AT_EPOCH": 90122
    },
    {
        "ARG_OF_PERICENTER": 315.7255,
        "BSTAR": 0.00024697388,
        "CLASSIFICATION_TYPE": "U",
        "ECCENTRICITY": 0.00147395,
        "ELEMENT_SET_NO": 999,
        "EPHEMERIS_TYPE": 0,
        "EPOCH": "2026-05-21T23:08:28.507776",
        "INCLINATION": 98.2304,
        "MEAN_ANOMALY": 44.2732,
        "MEAN_MOTION": 13.99652518,
        "MEAN_MOTION_DDOT": 0,
        "MEAN_MOTION_DOT": 3.24e-06,
        "NORAD_CAT_ID": 35931,
        "OBJECT_ID": "2009-051A",
        "OBJECT_NAME": "OCEANSAT-2",
        "RA_OF_ASC_NODE": 131.4345,
        "REV_AT_EPOCH": 87566
    },
    {
        "ARG_OF_PERICENTER": 308.1118,
        "BSTAR": 4.2104263e-05,
        "CLASSIFICATION_TYPE": "U",
        "ECCENTRICITY": 0.0003249,
        "ELEMENT_SET_NO": 999,
        "EPHEMERIS_TYPE": 0,
        "EPOCH": "2026-05-21T20:39:05.486688",
        "INCLINATION": 98.4682,
        "MEAN_ANOMALY": 51.9776,
        "MEAN_MOTION": 14.37935945,
        "MEAN_MOTION_DDOT": 0,
        "MEAN_MOTION_DOT": 8.4e-07,
        "NORAD_CAT_ID": 35946,
        "OBJECT_ID": "2009-055A",
        "OBJECT_NAME": "WORLDVIEW-2 (WV-2)",
        "RA_OF_ASC_NODE": 215.6762,
        "REV_AT_EPOCH": 87186
    },
    {
        "ARG_OF_PERICENTER": 93.0437,
        "BSTAR": 5.697229e-05,
        "CLASSIFICATION_TYPE": "U",
        "ECCENTRICITY": 0.00013104,
        "ELEMENT_SET_NO": 999,
        "EPHEMERIS_TYPE": 0,
        "EPOCH": "2026-05-21T22:04:52.295808",
        "INCLINATION": 98.4429,
        "MEAN_ANOMALY": 267.0902,
        "MEAN_MOTION": 14.39756755,
        "MEAN_MOTION_DDOT": 0,
        "MEAN_MOTION_DOT": 1.35e-06,
        "NORAD_CAT_ID": 36036,
        "OBJECT_ID": "2009-059A",
        "OBJECT_NAME": "SMOS",
        "RA_OF_ASC_NODE": 329.6399,
        "REV_AT_EPOCH": 86967
    },
    {
        "ARG_OF_PERICENTER": 123.744,
        "BSTAR": 4.7145e-05,
        "CLASSIFICATION_TYPE": "U",
        "ECCENTRICITY": 0.0025759,
        "ELEMENT_SET_NO": 999,
        "EPHEMERIS_TYPE": 0,
        "EPOCH": "2026-05-21T09:57:26.578080",
        "INCLINATION": 98.0103,
        "MEAN_ANOMALY": 236.623,
        "MEAN_MOTION": 14.77978812,
        "MEAN_MOTION_DDOT": 0,
        "MEAN_MOTION_DOT": 2.89e-06,
        "NORAD_CAT_ID": 36110,
        "OBJECT_ID": "2009-069A",
        "OBJECT_NAME": "YAOGAN-7",
        "RA_OF_ASC_NODE": 27.4432,
        "REV_AT_EPOCH": 88567
    },
    {
        "ARG_OF_PERICENTER": 88.8486,
        "BSTAR": 7.903761e-06,
        "CLASSIFICATION_TYPE": "U",
        "ECCENTRICITY": 0.00018641,
        "ELEMENT_SET_NO": 999,
        "EPHEMERIS_TYPE": 0,
        "EPOCH": "2026-05-20T09:29:15.005184",
        "INCLINATION": 97.4457,
        "MEAN_ANOMALY": 271.2962,
        "MEAN_MOTION": 15.19151246,
        "MEAN_MOTION_DDOT": 0,
        "MEAN_MOTION_DOT": 9.9e-07,
        "NORAD_CAT_ID": 36605,
        "OBJECT_ID": "2010-030A",
        "OBJECT_NAME": "TANDEM-X",
        "RA_OF_ASC_NODE": 148.4986,
        "REV_AT_EPOCH": 88242
    },
    {
        "ARG_OF_PERICENTER": 277.0066,
        "BSTAR": -2.0986543e-05,
        "CLASSIFICATION_TYPE": "U",
        "ECCENTRICITY": 0.00100211,
        "ELEMENT_SET_NO": 999,
        "EPHEMERIS_TYPE": 0,
        "EPOCH": "2026-05-21T22:45:18.293760",
        "INCLINATION": 97.9963,
        "MEAN_ANOMALY": 83.0005,
        "MEAN_MOTION": 14.78620836,
        "MEAN_MOTION_DDOT": 0,
        "MEAN_MOTION_DOT": -2.06e-06,
        "NORAD_CAT_ID": 36795,
        "OBJECT_ID": "2010-035A",
        "OBJECT_NAME": "CARTOSAT-2B",
        "RA_OF_ASC_NODE": 192.6624,
        "REV_AT_EPOCH": 85597
    },
    {
        "ARG_OF_PERICENTER": 92.4284,
        "BSTAR": 6.8094893e-05,
        "CLASSIFICATION_TYPE": "U",
        "ECCENTRICITY": 0.00015053,
        "ELEMENT_SET_NO": 999,
        "EPHEMERIS_TYPE": 0,
        "EPOCH": "2026-05-22T00:06:42.397632",
        "INCLINATION": 97.8988,
        "MEAN_ANOMALY": 297.4874,
        "MEAN_MOTION": 14.85254833,
        "MEAN_MOTION_DDOT": 0,
        "MEAN_MOTION_DOT": 5.3e-06,
        "NORAD_CAT_ID": 36834,
        "OBJECT_ID": "2010-038A",
        "OBJECT_NAME": "YAOGAN-10",
        "RA_OF_ASC_NODE": 165.6177,
        "REV_AT_EPOCH": 85332
    }