THEOS                   
1 33396U 08049A   26141.97063122 -.00000326  00000+0 -13330-3 0  9994
2 33396  98.5579 200.1029 0001372  87.0681 273.0653 14.20127923914243
COSMO-SKYMED 3          
1 33412U 08054A   26141.91334185  .00001359  00000+0  95588-4 0  9994
2 33412  97.8309   0.0477 0015773   2.2604 357.8692 15.06760150952980
YAOGAN-4                
1 33446U 08061A   26141.78857395  .00000573  00000+0  76739-4 0  9991
2 33446  97.9303  75.4960 0014882 151.4068 208.7965 14.83142462941750
GOSAT (IBUKI)           
1 33492U 09002A   26141.88822755  .00000329  00000+0  66469-4 0  9999
2 33492  98.0863 253.3026 0001666 100.8715 259.2677 14.67538521927603
DEIMOS-1                
1 35681U 09041A   26141.93705708  .00000344  00000+0  57986-4 0  9999
2 35681  97.7380 300.3070 0000341  46.5360 313.5878 14.75205625903019
DUBAISAT-1              
1 35682U 09041B   26141.90551098  .00000614  00000+0  98579-4 0  9991
2 35682  98.0017 275.4575 0011119 149.2648 210.9214 14.75072970901228
OCEANSAT-2              
1 35931U 09051A   26141.96421884  .00000324  00000+0  24697-3 0  9991
2 35931  98.2304 131.4345 0014739 315.7255  44.2732 13.99652518875665
WORLDVIEW-2 (WV-2)      
1 35946U 09055A   26141.86048017  .00000084  00000+0  42104-4 0  9990
2 35946  98.4682 215.6762 0003249 308.1118  51.9776 14.37935945871860
SMOS                    
1 36036U 09059A   26141.92004972  .00000135  00000+0  56972-4 0  9999
2 36036  98.4429 329.6399 0001310  93.0437 267.0902 14.39756755869672
YAOGAN-7                
1 36110U 09069A   26141.41489095  .00000289  00000+0  47145-4 0  9992
2 36110  98.0103  27.4432 0025759 123.7440 236.6230 14.77978812885675
TANDEM-X                
1 36605U 10030A   26140.39531256  .00000099  00000+0  79038-5 0  9990
2 36605  97.4457 148.4986 0001864  88.8486 271.2962 15.19151246882427
CARTOSAT-2B             
1 36795U 10035A   26141.94812840 -.00000206  00000+0 -20987-4 0  9998
2 36795  97.9963 192.6624 0010021 277.0066  83.0005 14.78620836855972
YAOGAN-10               
1 36834U 10038A   26142.00465738  .00000530  00000+0  68095-4 0  9993
2 36834  97.8988 165.6177 0001505  92.4284 297.4874 14.85254833853323
